ICEYE-X52               
1 64572U 25135AW  26166.19398225  .00001911  00000+0  18667-3 0  9992
2 64572  97.7744 280.4643 0001777  23.0612 337.0688 14.93552790 53588
MUSAT-3ALPHA            
1 64573U 25135AX  26166.14618598  .00002060  00000+0  15542-3 0  9991
2 64573  97.7071 280.4081 0001702 255.3259 104.7778 15.03540104 53625
ICEYE-X56               
1 64574U 25135AY  26166.15830293  .00002109  00000+0  19519-3 0  9993
2 64574  97.7749 281.1318 0001902  23.0015 337.1291 14.95602095 53621
ION SCV-018             
1 64575U 25135AZ  26166.14593090  .00000923  00000+0  90446-4 0  9995
2 64575  97.7778 281.2439 0011285 303.2183  56.7955 14.94648456 53624
IRIDE-MS2-HEO-6         
1 64576U 25135BA  26166.22682792  .00001419  00000+0  14568-3 0  9994
2 64576  97.7723 280.4565 0001242  48.4203 311.7123 14.91961117 53595
LYRA-3                  
1 64577U 25135BB  26166.19330806  .00001202  00000+0  18767-3 0  9992
2 64577  97.7734 271.2821 0020436 352.7994   7.2919 14.74476842 52973
ICEYE-X57               
1 64578U 25135BC  26166.13318902  .00004086  00000+0  32601-3 0  9996
2 64578  97.7949 282.5891 0001878  61.6470 298.4943 15.00859314 53711
GRUS-3ALPHA             
1 64579U 25135BD  26166.14676917  .00000074  00000+0  12509-4 0  9990
2 64579  97.7765 280.4366 0003283  27.5013 332.6380 14.93117992 53578
YAM-10                  
1 64580U 25135BE  26165.86477957  .00001820  00000+0  18600-3 0  9990
2 64580  97.7728 279.7488 0003374  26.6678 333.4714 14.91806311 53515
ICEYE-X55               
1 64581U 25135BF  26166.15772632  .00002221  00000+0  20733-3 0  9998
2 64581  97.7747 280.9759 0003217  21.5995 338.5360 14.95201468 53614
IRIDE-MS2-HEO-4         
1 64582U 25135BG  26166.23848731  .00001392  00000+0  14296-3 0  9997
2 64582  97.7727 280.6111 0002184  44.0007 316.1386 14.91967753 53609
CAPELLA-17 (ACADIA-7)   
1 64583U 25135BH  26165.78841618  .00006366  00000+0  64084-3 0  9990
2 64583  97.7700 279.4457 0005366  10.3029 349.8299 14.91514292 53494
ICEYE-X53               
1 64584U 25135BJ  26166.15774758  .00003198  00000+0  25601-3 0  9995
2 64584  97.7393 282.9502 0001105 146.1369 213.9926 15.00885309 53775
IRIDE-MS2-HEO-9         
1 64585U 25135BK  26166.14919714  .00001634  00000+0  16687-3 0  9995
2 64585  97.7758 280.7072 0002238  51.1998 308.9420 14.91961936 53594
LEMUR-2-SEJONG-2        
1 64586U 25135BL  26166.23240576  .00003135  00000+0  27976-3 0  9990
2 64586  97.7690 281.2666 0004014 347.6819  12.4304 14.96683666 53655
IRIDE-MS2-HEO-8         
1 64587U 25135BM  26166.19446402  .00001535  00000+0  15725-3 0  9993
2 64587  97.7735 280.7127 0002006  42.7781 317.3594 14.91931783 53606
BIFROST-DNK             
1 64588U 25135BN  26166.13184493  .00002709  00000+0  25531-3 0  9997
2 64588  97.7747 280.8369 0004208  16.4683 343.6673 14.94634027 53608
SATORO-T3               
1 64589U 25135BP  26166.15382139  .00001456  00000+0  14079-3 0  9990
2 64589  97.7715 280.7007 0004520 357.9496   2.1704 14.94334602 53602
TRANSPORTER-14 OBJECT BQ
1 64590U 25135BQ  26166.18229463  .00001480  00000+0  14396-3 0  9994
2 64590  97.7717 280.6535 0004940 354.5455   5.5711 14.94059426 53608
AE2A                    
1 64591U 25135BR  26166.15052994  .00004515  00000+0  39611-3 0  9994
2 64591  97.7702 281.3849 0004699 357.2952   2.8243 14.97117322 53650
HUBBLE 7                
1 64592U 25135BS  26166.14641997  .00001679  00000+0  16421-3 0  9993
2 64592  97.7751 280.8590 0002923  23.7556 336.3798 14.93662391 53607
STARLINK-34280          
1 64594U 25137A   26165.54227675  .00007335  00000+0  25966-3 0  9992
2 64594  53.1589 245.3596 0001322  86.5892 273.5260 15.30184163 55569
STARLINK-34517          
1 64595U 25137B   26165.92870477  .00020966  00000+0  62994-3 0  9996
2 64595  53.1601 243.5005 0001192  80.9287 279.1851 15.34398993 55628
STARLINK-34510          
1 64596U 25137C   26166.16668980  .00046162  00000+0  14089-2 0  9995
2 64596  53.1594 242.5773 0002125 113.6023  26.0952 15.33489235  5861
STARLINK-34486          
1 64597U 25137D   26165.51494813  .00009606  00000+0  33591-3 0  9998
2 64597  53.1584 245.8931 0000770 101.8510 258.2577 15.30210231 55555
STARLINK-34463          
1 64598U 25137E   26165.93080648  .00016316  00000+0  49297-3 0  9998
2 64598  53.1597 243.5112 0001131  84.3592 275.7539 15.34400276 55627
STARLINK-34294          
1 64599U 25137F   26162.55256392  .00017425  00000+0  59887-3 0  9993
2 64599  53.1596 259.4072 0001390  99.5886 260.5272 15.30210010 55109
STARLINK-34504          
1 64600U 25137G   26165.51283685  .00015017  00000+0  51802-3 0  9994
2 64600  53.1579 245.8848 0001300  94.7861 265.3289 15.30206357 55553
STARLINK-34508          
1 64601U 25137H   26165.92466169  .00020096  00000+0  68865-3 0  9990
2 64601  53.1591 243.4742 0001212  80.6472 279.4666 15.30205870 55621
STARLINK-34435          
1 64602U 25137J   26165.48856673  .00024785  00000+0  84598-3 0  9995
2 64602  53.1605 245.7277 0001399  89.8485 270.2676 15.30206506 55556
