OBJECT_NAME,OBJECT_ID,EPOCH,MEAN_MOTION,ECCENTRICITY,INCLINATION,RA_OF_ASC_NODE,ARG_OF_PERICENTER,MEAN_ANOMALY,EPHEMERIS_TYPE,CLASSIFICATION_TYPE,NORAD_CAT_ID,ELEMENT_SET_NO,REV_AT_EPOCH,BSTAR,MEAN_MOTION_DOT,MEAN_MOTION_DDOT
ICEYE-X52,2025-135AW,2026-06-15T04:39:20.066400,14.93552790,.0001777,97.7744,280.4643,23.0612,337.0688,0,U,64572,999,5358,.18667E-3,.1911E-4,0
MUSAT-3ALPHA,2025-135AX,2026-06-15T03:30:30.468672,15.03540104,.0001702,97.7071,280.4081,255.3259,104.7778,0,U,64573,999,5362,.15542E-3,.206E-4,0
ICEYE-X56,2025-135AY,2026-06-15T03:47:57.373152,14.95602095,.0001902,97.7749,281.1318,23.0015,337.1291,0,U,64574,999,5362,.19519E-3,.2109E-4,0
ION SCV-018,2025-135AZ,2026-06-15T03:30:08.429760,14.94648456,.0011285,97.7778,281.2439,303.2183,56.7955,0,U,64575,999,5362,.90446E-4,.923E-5,0
IRIDE-MS2-HEO-6,2025-135BA,2026-06-15T05:26:37.932288,14.91961117,.0001242,97.7723,280.4565,48.4203,311.7123,0,U,64576,999,5359,.14568E-3,.1419E-4,0
LYRA-3,2025-135BB,2026-06-15T04:38:21.816384,14.74476842,.0020436,97.7734,271.2821,352.7994,7.2919,0,U,64577,999,5297,.18767E-3,.1202E-4,0
ICEYE-X57,2025-135BC,2026-06-15T03:11:47.531328,15.00859314,.0001878,97.7949,282.5891,61.6470,298.4943,0,U,64578,999,5371,.32601E-3,.4086E-4,0
GRUS-3ALPHA,2025-135BD,2026-06-15T03:31:20.856288,14.93117992,.0003283,97.7765,280.4366,27.5013,332.6380,0,U,64579,999,5357,.12509E-4,.74E-6,0
YAM-10,2025-135BE,2026-06-14T20:45:16.954848,14.91806311,.0003374,97.7728,279.7488,26.6678,333.4714,0,U,64580,999,5351,.18599966E-3,.182E-4,0
ICEYE-X55,2025-135BF,2026-06-15T03:47:07.554048,14.95201468,.0003217,97.7747,280.9759,21.5995,338.5360,0,U,64581,999,5361,.20733E-3,.2221E-4,0
IRIDE-MS2-HEO-4,2025-135BG,2026-06-15T05:43:25.303584,14.91967753,.0002184,97.7727,280.6111,44.0007,316.1386,0,U,64582,999,5360,.14296E-3,.1392E-4,0
CAPELLA-17 (ACADIA-7),2025-135BH,2026-06-14T18:55:19.157952,14.91514292,.00053662,97.7700,279.4457,10.3029,349.8299,0,U,64583,999,5349,.6408386E-3,.6366E-4,0
ICEYE-X53,2025-135BJ,2026-06-15T03:47:09.390912,15.00885309,.0001105,97.7393,282.9502,146.1369,213.9926,0,U,64584,999,5377,.25601E-3,.3198E-4,0
IRIDE-MS2-HEO-9,2025-135BK,2026-06-15T03:34:50.632896,14.91961936,.0002238,97.7758,280.7072,51.1998,308.9420,0,U,64585,999,5359,.16687E-3,.1634E-4,0
LEMUR-2-SEJONG-2,2025-135BL,2026-06-15T05:34:39.857664,14.96683666,.0004014,97.7690,281.2666,347.6819,12.4304,0,U,64586,999,5365,.27976E-3,.3135E-4,0
IRIDE-MS2-HEO-8,2025-135BM,2026-06-15T04:40:01.691328,14.91931783,.0002006,97.7735,280.7127,42.7781,317.3594,0,U,64587,999,5360,.15725E-3,.1535E-4,0
BIFROST-DNK,2025-135BN,2026-06-15T03:09:51.401952,14.94634027,.0004208,97.7747,280.8369,16.4683,343.6673,0,U,64588,999,5360,.25531E-3,.2709E-4,0
SATORO-T3,2025-135BP,2026-06-15T03:41:30.168096,14.94334602,.000452,97.7715,280.7007,357.9496,2.1704,0,U,64589,999,5360,.14079E-3,.1456E-4,0
TRANSPORTER-14 OBJECT BQ,2025-135BQ,2026-06-15T04:22:30.256032,14.94059426,.000494,97.7717,280.6535,354.5455,5.5711,0,U,64590,999,5360,.14396E-3,.148E-4,0
AE2A,2025-135BR,2026-06-15T03:36:45.786816,14.97117322,.0004699,97.7702,281.3849,357.2952,2.8243,0,U,64591,999,5365,.39611E-3,.4515E-4,0
HUBBLE 7,2025-135BS,2026-06-15T03:30:50.685408,14.93662391,.0002923,97.7751,280.8590,23.7556,336.3798,0,U,64592,999,5360,.16421E-3,.1679E-4,0
STARLINK-34280,2025-137A,2026-06-14T13:00:52.711200,15.30184163,.0001322,53.1589,245.3596,86.5892,273.5260,0,U,64594,999,5556,.25966E-3,.7335E-4,0
STARLINK-34517,2025-137B,2026-06-14T22:17:20.092128,15.34398993,.0001192,53.1601,243.5005,80.9287,279.1851,0,U,64595,999,5562,.62994E-3,.20966E-3,0
STARLINK-34510,2025-137C,2026-06-15T04:00:01.998720,15.33489235,.0002125,53.1594,242.5773,113.6023,26.0952,0,U,64596,999,586,.14089E-2,.46162E-3,0
STARLINK-34486,2025-137D,2026-06-14T12:21:31.518432,15.30210231,.00007701,53.1584,245.8931,101.8510,258.2577,0,U,64597,999,5555,.33591359E-3,.9606E-4,0
STARLINK-34463,2025-137E,2026-06-14T22:20:21.679872,15.34400276,.0001131,53.1597,243.5112,84.3592,275.7539,0,U,64598,999,5562,.49297E-3,.16316E-3,0
STARLINK-34294,2025-137F,2026-06-11T13:15:41.522688,15.30210010,.000139,53.1596,259.4072,99.5886,260.5272,0,U,64599,999,5510,.59887E-3,.17425E-3,0
STARLINK-34504,2025-137G,2026-06-14T12:18:29.103840,15.30206357,.00013004,53.1579,245.8848,94.7861,265.3289,0,U,64600,999,5555,.51802209E-3,.15017E-3,0
STARLINK-34508,2025-137H,2026-06-14T22:11:30.770016,15.30205870,.0001212,53.1591,243.4742,80.6472,279.4666,0,U,64601,999,5562,.68865E-3,.20096E-3,0
STARLINK-34435,2025-137J,2026-06-14T11:43:32.165472,15.30206506,.00013992,53.1605,245.7277,89.8485,270.2676,0,U,64602,999,5555,.84597947E-3,.24785E-3,0
